ONEWEB-0269             
1 48987U 21060W   22350.89723405  .00000149  00000+0  35651-3 0  9991
2 48987  87.9047 123.3361 0001392 104.3275 255.8010 13.16597937 71425
ONEWEB-0270             
1 48988U 21060X   22350.83813828  .00000058  00000+0  11716-3 0  9990
2 48988  87.9064 123.3491 0001639  94.1841 265.9477 13.16595011 71451
ONEWEB-0271             
1 48989U 21060Y   22350.90147708  .00000181  00000+0  43859-3 0  9996
2 48989  87.9062 123.3130 0002037 106.6697 253.4658 13.16596209 71465
ONEWEB-0272             
1 48990U 21060Z   22350.84869078 -.00000013  00000+0 -67317-4 0  9994
2 48990  87.9052 123.3284 0001860 109.5869 250.5463 13.16593108 71403
ONEWEB-0273             
1 48991U 21060AA  22350.79381070 -.00000439  00000+0 -11817-2 0  9994
2 48991  87.9062 123.3519 0002036 104.1141 256.0217 13.16591760 71372
ONEWEB-0274             
1 48992U 21060AB  22350.89513046  .00000092  00000+0  20804-3 0  9996
2 48992  87.9061 123.3288 0001888 105.0277 255.1063 13.16593940 71426
ONEWEB-0275             
1 48993U 21060AC  22350.88458033 -.00000035  00000+0 -12484-3 0  9994
2 48993  87.9065 123.3321 0001558  98.8581 261.2726 13.16598218 71359
ONEWEB-0276             
1 48994U 21060AD  22350.84235889  .00000062  00000+0  12889-3 0  9990
2 48994  87.9042 123.3605 0001949 101.2350 258.9000 13.16594984 71362
ONEWEB-0277             
1 48995U 21060AE  22350.85501117 -.00000012  00000+0 -65455-4 0  9997
2 48995  87.9044 123.3598 0002181 107.6005 252.5364 13.16591922 71353
ONEWEB-0278             
1 48996U 21060AF  22350.84445057  .00000027  00000+0  37758-4 0  9996
2 48996  87.9064 123.3300 0001720 101.5064 258.6260 13.16597030 71485
ONEWEB-0279             
1 48997U 21060AG  22350.85291652  .00000018  00000+0  14294-4 0  9998
2 48997  87.9059 123.3329 0001546 103.4584 256.6719 13.16592908 71414
ONEWEB-0280             
1 48998U 21060AH  22350.79169963 -.00000061  00000+0 -19388-3 0  9999
2 48998  87.9056 123.3576 0002423 111.4744 248.6646 13.16595823 71349
ONEWEB-0281             
1 48999U 21060AJ  22350.79800808 -.00000003  00000+0 -40850-4 0  9995
2 48999  87.9059 123.3405 0001323 114.0292 246.0977 13.16591448 71415
ONEWEB-0282             
1 49000U 21060AK  22350.82758703  .00000102  00000+0  23385-3 0  9990
2 49000  87.9044 123.3488 0001886 100.0868 260.0475 13.16595204 71392
ONEWEB-0283             
1 49001U 21060AL  22350.89302763  .00000112  00000+0  25863-3 0  9993
2 49001  87.9038 123.3233 0001871 106.1961 253.9376 13.16594182 71417
ONEWEB-0284             
1 49002U 21060AM  22350.88667627  .00000010  00000+0 -79908-5 0  9995
2 49002  87.9057 123.3699 0001736  95.8939 264.2390 13.16592405 71398
ONEWEB-0285             
1 49075U 21075A   22350.71865799  .00000135  00000+0  33867-3 0  9992
2 49075  87.8921 244.6374 0001738  79.8041 280.3283 13.12443016 67510
ONEWEB-0286             
1 49076U 21075B   22350.76311496  .00000153  00000+0  38975-3 0  9993
2 49076  87.8946 244.6256 0000981  72.6126 287.5110 13.12446966 66874
ONEWEB-0287             
1 49077U 21075C   22350.79019497  .00000046  00000+0  85721-4 0  9996
2 49077  87.9114 259.8748 0001944  64.4179 295.7153 13.17647273 65274
ONEWEB-0288             
1 49078U 21075D   22350.74830151 -.00000475  00000+0 -13554-2 0  9991
2 49078  87.8950 244.6277 0001416  67.9603 292.1676 13.12444723 67492
ONEWEB-0289             
1 49079U 21075E   22350.80879581  .00000045  00000+0  81938-4 0  9993
2 49079  87.9114 259.8417 0001526  76.2913 283.8388 13.17652240 65854
ONEWEB-0290             
1 49080U 21075F   22350.79638591  .00000061  00000+0  12296-3 0  9995
2 49080  87.9112 259.8674 0001933  67.2819 292.8517 13.17650696 65268
ONEWEB-0291             
1 49081U 21075G   22350.78555120 -.00000137  00000+0 -38525-3 0  9990
2 49081  87.9111 259.8576 0001765  65.3783 294.7532 13.17649974 65255
ONEWEB-0293             
1 49082U 21075H   22350.80259419  .00000081  00000+0  17591-3 0  9992
2 49082  87.9113 259.8394 0001943  66.5783 293.5552 13.17646523 65286
ONEWEB-0294             
1 49083U 21075J   22350.75360100 -.00000176  00000+0 -52531-3 0  9997
2 49083  87.8947 244.6302 0002013  70.7215 289.4131 13.12442763 66887
ONEWEB-0295             
1 49084U 21075K   22350.80413206 -.00000162  00000+0 -44955-3 0  9996
2 49084  87.9112 259.7976 0001628  48.8332 311.2940 13.17646890 65247
ONEWEB-0296             
1 49085U 21075L   22350.73771687 -.00002345  00000+0 -65552-2 0  9999
2 49085  87.8945 244.6295 0001438  20.5206 339.5980 13.12447375 66884
ONEWEB-0297             
1 49086U 21075M   22350.76734664  .00000262  00000+0  69186-3 0  9999
2 49086  87.8940 244.6236 0001242  89.1890 270.9380 13.12447144 67492
ONEWEB-0298             
1 49087U 21075N   22350.80570166  .00000041  00000+0  71308-4 0  9995
2 49087  87.9110 259.8217 0001306  68.0632 292.0639 13.17647016 65272
ONEWEB-0299             
1 49088U 21075P   22350.80723850 -.00000008  00000+0 -53519-4 0  9995
2 49088  87.9166 259.8115 0001474  67.2432 292.8855 13.17646701 65252
ONEWEB-0300             
1 49089U 21075Q   22350.75888838 -.00000035  00000+0 -13206-3 0  9996
2 49089  87.8949 244.6212 0001283  82.2527 277.8747 13.12445453 67511
ONEWEB-0301             
1 49090U 21075R   22350.74407533 -.00000379  00000+0 -10896-2 0  9998
2 49090  87.8948 244.6329 0001622  88.1927 271.9388 13.12447575 66878
ONEWEB-0302             
1 49091U 21075S   22350.73243031 -.00000392  00000+0 -11244-2 0  9992
2 49091  87.8950 244.6373 0001564  65.7077 294.4215 13.12442878 66851
ONEWEB-0304             
1 49092U 21075T   22350.79175742 -.00000037  00000+0 -12911-3 0  9991
2 49092  87.9113 259.8322 0001660  73.7795 286.3519 13.17647992 65225
ONEWEB-0305             
1 49093U 21075U   22350.78399201  .00000072  00000+0  15257-3 0  9992
2 49093  87.9114 259.8761 0001422  59.8828 300.2444 13.17646565 65253
ONEWEB-0308             
1 49094U 21075V   22350.72712912 -.00000210  00000+0 -62019-3 0  9999
2 49094  87.8947 244.6333 0001519  77.5672 282.5626 13.12443615 66863
ONEWEB-0309             
1 49095U 21075W   22350.78865121  .00000016  00000+0  87130-5 0  9992
2 49095  87.9109 259.8807 0002194  67.7953 292.3411 13.17647214 65228
ONEWEB-0310             
1 49096U 21075X   22350.73875784 -.00000366  00000+0 -10532-2 0  9993
2 49096  87.8913 244.6496 0001835  70.9134 289.2193 13.12439839 67495
ONEWEB-0311             
1 49097U 21075Y   22350.79328523 -.00000870  00000+0 -22740-2 0  9998
2 49097  87.9109 259.8808 0001490  63.8064 296.3220 13.17649758 65271
ONEWEB-0312             
1 49098U 21075Z   22350.80104061 -.00000303  00000+0 -81474-3 0  9991
2 49098  87.9112 259.8444 0001724  62.7297 297.4010 13.17648032 65259
ONEWEB-0313             
1 49099U 21075AA  22350.78709709  .00000029  00000+0  41084-4 0  9996
2 49099  87.9106 259.8767 0001756  59.1967 300.9337 13.17651967 65242
ONEWEB-0314             
1 49100U 21075AB  22350.78246052 -.00000028  00000+0 -10454-3 0  9993
2 49100  87.9112 259.8817 0001739  59.8690 300.2614 13.17649574 65218
ONEWEB-0315             
1 49101U 21075AC  22350.78643508  .00000423  00000+0  11398-2 0  9995
2 49101  87.8947 244.6163 0001398  74.1498 285.9785 13.12442349 67482
ONEWEB-0316             
1 49102U 21075AD  22350.71213799 -.00000251  00000+0 -66949-3 0  9998
2 49102  87.9209 229.4673 0001056  70.3994 289.7252 13.18686261 68719
ONEWEB-0317             
1 49103U 21075AE  22350.78220662  .00000489  00000+0  13239-2 0  9997
2 49103  87.8946 244.6213 0001797  69.7717 290.3605 13.12442110 67506
ONEWEB-0318             
1 49104U 21075AF  22350.71057881 -.00000447  00000+0 -11657-2 0  9990
2 49104  87.9214 229.4533 0001073  73.9698 286.1552 13.18685673 68676
ONEWEB-0319             
1 49105U 21075AG  22350.79485335  .00000027  00000+0  36847-4 0  9990
2 49105  87.9112 259.8434 0000859  57.9225 302.1990 13.17650558 65259
ONEWEB-0323             
1 49106U 21075AH  22350.77265916  .00000387  00000+0  10411-2 0  9996
2 49106  87.8944 244.6183 0001303  69.8402 290.2866 13.12444102 66867
ONEWEB-0329             
1 49107U 21075AJ  22350.79793953  .00000028  00000+0  38319-4 0  9997
2 49107  87.9112 259.8416 0001537  64.1675 295.9615 13.17650528 65232
ONEWEB-0330             
1 49108U 21075AK  22350.79950933  .00000045  00000+0  83415-4 0  9997
2 49108  87.9113 259.8600 0001676  66.5889 293.5418 13.17649992 65278
ONEWEB-0292             
1 49186U 21083A   22350.67519801 -.00000043  00000+0 -15202-3 0  9992
2 49186  87.9037 214.2599 0001382  84.5325 275.5962 13.13467185 63090
ONEWEB-0303             
1 49187U 21083B   22350.70750791  .00000005  00000+0 -21097-4 0  9999
2 49187  87.9212 229.4565 0001304  68.4898 291.6373 13.18685319 61489
ONEWEB-0306             
1 49188U 21083C   22350.70129931  .00000047  00000+0  86908-4 0  9993
2 49188  87.9210 229.4496 0000924  77.5295 282.5940 13.18683093 61521
ONEWEB-0307             
1 49189U 21083D   22350.67097862 -.00000220  00000+0 -63755-3 0  9996
2 49189  87.9038 214.2606 0001417  79.5230 280.6058 13.13472421 63093
ONEWEB-0320             
1 49190U 21083E   22350.70595602 -.00000138  00000+0 -38383-3 0  9994
2 49190  87.9212 229.4662 0001747  75.3436 284.7890 13.18685697 61483
ONEWEB-0321             
1 49191U 21083F   22350.91667824  .00000014  00000+0  00000+0 0  9996
2 49191  87.8708 168.8490 0002116  94.3186  18.9435 13.55473385  1309
ONEWEB-0322             
1 49192U 21083G   22350.66675115 -.00000241  00000+0 -69346-3 0  9997
2 49192  87.9039 214.2471 0001889  79.7405 280.3937 13.13473477 63081
ONEWEB-0324             
1 49193U 21083H   22350.69513025  .00004164  00000+0  10529-1 0  9995
2 49193  87.9212 229.4548 0001011  64.5527 295.5709 13.18664780 61506
ONEWEB-0325             
1 49194U 21083J   22350.69819959  .00000197  00000+0  46590-3 0  9992
2 49194  87.9187 229.3742 0001796  74.6946 285.4384 13.18680637 61517
